COSMOS 2361 [-]         
1 25590U 98076A   16077.67719362  .00000065  00000-0  53357-4 0  9991
2 25590  82.9306  93.3711 0033002  74.0962  63.2843 13.72909873863294
COSMOS 2378 [-]         
1 26818U 01023A   16077.27194439  .00000065  00000-0  52830-4 0  9994
2 26818  82.9257 115.9192 0034242  32.2957 328.0286 13.73897868740797
COSMOS 2389 [-]         
1 27436U 02026A   16077.87451627  .00000053  00000-0  39627-4 0  9992
2 27436  82.9491  58.7797 0044944 263.8894 158.1479 13.74896337692761
COSMOS 2398 [-]         
1 27818U 03023A   16077.26574807  .00000072  00000-0  63235-4 0  9996
2 27818  82.9513  13.4432 0029868 272.1454  87.6267 13.72125042640273
COSMOS 2407 [+]         
1 28380U 04028A   16077.13159159  .00000096  00000-0  83326-4 0  9991
2 28380  82.9621 326.6443 0037869 281.7642  77.9266 13.76022349585138
COSMOS 2414 [+]         
1 28521U 05002A   16078.04590058  .00000073  00000-0  48510-4 0  9990
2 28521  82.9541 353.6134 0039588 197.3268 162.6552 13.87565795565024
COSMOS 2429 [-]         
1 32052U 07038A   16077.19664722  .00000076  00000-0  64060-4 0  9991
2 32052  82.9769  84.4208 0037102 247.6664 112.0557 13.74868813427248
COSMOS 2454 [-]         
1 35635U 09039A   16078.18271166  .00000082  00000-0  53996-4 0  9993
2 35635  82.9594 344.1148 0019734 161.9099 198.2766 13.89591455337726
COSMOS 2463 [+]         
1 36519U 10017A   16077.22097315 -.00000154  00000-0 -18772-3 0  9993
2 36519  82.9591 119.7622 0037662  77.0710 283.4646 13.71395189294830
